STARLINK-37587          
1 69837U 26154U   26198.66670139  .00024342  00000+0  12661-3 0  9998
2 69837  53.1588 280.4086 0001277  68.8986  43.6581 15.80856511  3038
STARLINK-37590          
1 69838U 26154V   26198.66670139  .00025865  00000+0  13430-3 0  9995
2 69838  53.1588 280.3999 0000781  91.1635  25.6629 15.80855479  2900
STARLINK-37589          
1 69839U 26154W   26198.66670139  .00019031  00000+0  99804-4 0  9994
2 69839  53.1588 280.3911 0001136  90.5779  30.5180 15.80860812  3031
STARLINK-37487          
1 69840U 26154X   26198.66670139 -.02155760  00000+0 -98208-2 0  9995
2 69840  53.1564 279.9341 0000688  68.0089 272.7021 15.86337988  3047
STARLINK-37433          
1 69841U 26154Y   26198.66670139 -.02167058  00000+0 -10637-1 0  9998
2 69841  53.1569 279.9226 0000906  68.4228 277.8967 15.84836772  3168
STARLINK-37588          
1 69842U 26154Z   26198.66670139 -.02252070  00000+0 -99160-2 0  9997
2 69842  53.1563 279.9039 0000569  70.8954 284.2602 15.87184812  3075
STARLINK-37579          
1 69843U 26154AA  26198.66670139 -.01705488  00000+0 -80531-2 0  9995
2 69843  53.1567 279.8963 0000815  66.6509 292.0418 15.85364194  3071
STARLINK-37584          
1 69844U 26154AB  26198.66670139 -.02219090  00000+0 -10677-1 0  9999
2 69844  53.1567 279.8843 0000860  75.1013 289.2799 15.85336446  3073
STARLINK-37606          
1 69845U 26154AC  26198.66670139 -.01755298  00000+0 -84875-2 0  9996
2 69845  53.1562 279.8742 0000952  67.1664 301.8933 15.84972627  3079
STARLINK-37603          
1 69846U 26154AD  26198.66670139 -.02220766  00000+0 -11031-1 0  9998
2 69846  53.1571 279.8621 0001007  51.4867 323.3588 15.84685163  3070
STARLINK-37595          
1 69847U 26154AE  26198.66670139 -.01856363  00000+0 -90603-2 0  9999
2 69847  53.1566 279.8512 0001062  61.0702 318.6082 15.84441718  3072
QIANFAN-219             
1 69848U 26155A   26198.53745339 -.01898484  00000+0 -91273+0 0  9993
2 69848  89.0059  60.6797 0028070 212.6325 147.3133 14.22527695  1715
QIANFAN-220             
1 69849U 26155B   26198.55409522 -.02080533  00000+0 -11423+1 0  9996
2 69849  89.0064  60.6826 0032363 204.9039 155.0589 14.15744704  1716
QIANFAN-221             
1 69850U 26155C   26198.53798913  .00000201  00000+0  76683-4 0  9994
2 69850  89.0064  60.6794 0030526 215.5843 144.3316 14.26647476  1711
QIANFAN-222             
1 69851U 26155D   26198.54944560 -.01925978  00000+0 -10089+1 0  9991
2 69851  89.0059  60.6812 0035207 211.5649 148.3428 14.17901638  1719
QIANFAN-223             
1 69852U 26155E   26198.68713860 -.01526248  00000+0 -81473+0 0  9995
2 69852  89.0060  60.6649 0030800 223.1715 136.7059 14.16703346  1735
QIANFAN-224             
1 69853U 26155F   26198.61424741 -.01811940  00000+0 -92389+0 0  9990
2 69853  89.0052  60.6717 0035085 216.7126 143.1661 14.19114061  1720
QIANFAN-225             
1 69854U 26155G   26198.68295536 -.01869542  00000+0 -97045+0 0  9991
2 69854  89.0058  60.6642 0034927 215.3282 144.5593 14.18280507  1734
QIANFAN-226             
1 69855U 26155H   26198.68168352 -.01891694  00000+0 -97710+0 0  9999
2 69855  89.0057  60.6641 0035398 212.5134 147.3876 14.18581672  1733
QIANFAN-227             
1 69856U 26155J   26198.53831163 -.02080548  00000+0 -10290+1 0  9999
2 69856  89.0057  60.6795 0028222 218.9645 140.9512 14.21399203  1714
QIANFAN-228             
1 69857U 26155K   26198.53749359 -.02002181  00000+0 -98694+0 0  9995
2 69857  89.0055  60.6803 0029210 218.7333 141.1764 14.21400385  1719
QIANFAN-229             
1 69858U 26155L   26198.53632181 -.01941522  00000+0 -92626+0 0  9999
2 69858  89.0058  60.6795 0026435 218.9241 141.0048 14.23045738  1712
QIANFAN-230             
1 69859U 26155M   26198.69193213 -.01900665  00000+0 -10035+1 0  9993
2 69859  89.0054  60.6648 0034528 221.5627 138.2936 14.17443419  1733
QIANFAN-231             
1 69860U 26155N   26198.60945985 -.01839640  00000+0 -89435+0 0  9990
2 69860  89.0060  60.6720 0029939 217.6602 142.2494 14.21789463  1722
QIANFAN-232             
1 69861U 26155P   26198.53598774 -.01422852  00000+0 -70358+0 0  9990
2 69861  89.0059  60.6791 0029111 225.5722 134.3086 14.20565832  1711
QIANFAN-233             
1 69862U 26155Q   26198.53593348 -.01910031  00000+0 -91228+0 0  9993
2 69862  89.0058  60.6794 0026923 219.4666 140.4566 14.22914198  1717
QIANFAN-234             
1 69863U 26155R   26198.67588866 -.01838943  00000+0 -88320+0 0  9998
2 69863  89.0059  60.6635 0028500 212.0278 147.9182 14.22453577  1731
QIANFAN-235             
1 69864U 26155S   26198.67595844 -.01869569  00000+0 -89680+0 0  9991
2 69864  89.0059  60.6633 0027651 213.0269 146.9197 14.22593748  1737
QIANFAN-236             
1 69865U 26155T   26198.67608484 -.01913542  00000+0 -91498+0 0  9998
2 69865  89.0058  60.6634 0026592 213.0281 146.9251 14.22867020  1733
QIANFAN-237             
1 69866U 26155U   26198.53550164 -.01853486  00000+0 -88841+0 0  9993
2 69866  89.0059  60.6793 0027579 217.6815 142.2445 14.22602425  1707
