OBJECT_NAME,OBJECT_ID,EPOCH,MEAN_MOTION,ECCENTRICITY,INCLINATION,RA_OF_ASC_NODE,ARG_OF_PERICENTER,MEAN_ANOMALY,EPHEMERIS_TYPE,CLASSIFICATION_TYPE,NORAD_CAT_ID,ELEMENT_SET_NO,REV_AT_EPOCH,BSTAR,MEAN_MOTION_DOT,MEAN_MOTION_DDOT
STARLINK-37587,2026-154U,2026-07-17T16:00:03.000096,15.80856511,.0001277,53.1588,280.4086,68.8986,43.6581,0,U,69837,999,303,.12661E-3,.24342E-3,0
STARLINK-37590,2026-154V,2026-07-17T16:00:03.000096,15.80855479,.0000781,53.1588,280.3999,91.1635,25.6629,0,U,69838,999,290,.1343E-3,.25865E-3,0
STARLINK-37589,2026-154W,2026-07-17T16:00:03.000096,15.80860812,.0001136,53.1588,280.3911,90.5779,30.5180,0,U,69839,999,303,.99804E-4,.19031E-3,0
STARLINK-37487,2026-154X,2026-07-17T16:00:03.000096,15.86337988,.0000688,53.1564,279.9341,68.0089,272.7021,0,U,69840,999,304,-.98208E-2,-.215576E-1,0
STARLINK-37433,2026-154Y,2026-07-17T16:00:03.000096,15.84836772,.0000906,53.1569,279.9226,68.4228,277.8967,0,U,69841,999,316,-.10637E-1,-.2167058E-1,0
STARLINK-37588,2026-154Z,2026-07-17T16:00:03.000096,15.87184812,.0000569,53.1563,279.9039,70.8954,284.2602,0,U,69842,999,307,-.9916E-2,-.225207E-1,0
STARLINK-37579,2026-154AA,2026-07-17T16:00:03.000096,15.85364194,.0000815,53.1567,279.8963,66.6509,292.0418,0,U,69843,999,307,-.80531E-2,-.1705488E-1,0
STARLINK-37584,2026-154AB,2026-07-17T16:00:03.000096,15.85336446,.000086,53.1567,279.8843,75.1013,289.2799,0,U,69844,999,307,-.10677E-1,-.221909E-1,0
STARLINK-37606,2026-154AC,2026-07-17T16:00:03.000096,15.84972627,.0000952,53.1562,279.8742,67.1664,301.8933,0,U,69845,999,307,-.84875E-2,-.1755298E-1,0
STARLINK-37603,2026-154AD,2026-07-17T16:00:03.000096,15.84685163,.0001007,53.1571,279.8621,51.4867,323.3588,0,U,69846,999,307,-.11031E-1,-.2220766E-1,0
STARLINK-37595,2026-154AE,2026-07-17T16:00:03.000096,15.84441718,.0001062,53.1566,279.8512,61.0702,318.6082,0,U,69847,999,307,-.90603E-2,-.1856363E-1,0
QIANFAN-219,2026-155A,2026-07-17T12:53:55.972896,14.22527695,.002807,89.0059,60.6797,212.6325,147.3133,0,U,69848,999,171,-.91273E+0,-.1898484E-1,0
QIANFAN-220,2026-155B,2026-07-17T13:17:53.827008,14.15744704,.0032363,89.0064,60.6826,204.9039,155.0589,0,U,69849,999,171,-.11423E+1,-.2080533E-1,0
QIANFAN-221,2026-155C,2026-07-17T12:54:42.260832,14.26647476,.0030526,89.0064,60.6794,215.5843,144.3316,0,U,69850,999,171,.76683E-4,.201E-5,0
QIANFAN-222,2026-155D,2026-07-17T13:11:12.099840,14.17901638,.0035207,89.0059,60.6812,211.5649,148.3428,0,U,69851,999,171,-.10089E+1,-.1925978E-1,0
QIANFAN-223,2026-155E,2026-07-17T16:29:28.775040,14.16703346,.00308,89.0060,60.6649,223.1715,136.7059,0,U,69852,999,173,-.81473E+0,-.1526248E-1,0
QIANFAN-224,2026-155F,2026-07-17T14:44:30.976224,14.19114061,.0035085,89.0052,60.6717,216.7126,143.1661,0,U,69853,999,172,-.92389E+0,-.181194E-1,0
QIANFAN-225,2026-155G,2026-07-17T16:23:27.343104,14.18280507,.0034927,89.0058,60.6642,215.3282,144.5593,0,U,69854,999,173,-.97045E+0,-.1869542E-1,0
QIANFAN-226,2026-155H,2026-07-17T16:21:37.456128,14.18581672,.0035398,89.0057,60.6641,212.5134,147.3876,0,U,69855,999,173,-.9771E+0,-.1891694E-1,0
QIANFAN-227,2026-155J,2026-07-17T12:55:10.124832,14.21399203,.0028222,89.0057,60.6795,218.9645,140.9512,0,U,69856,999,171,-.1029E+1,-.2080548E-1,0
QIANFAN-228,2026-155K,2026-07-17T12:53:59.446176,14.21400385,.002921,89.0055,60.6803,218.7333,141.1764,0,U,69857,999,171,-.98694E+0,-.2002181E-1,0
QIANFAN-229,2026-155L,2026-07-17T12:52:18.204384,14.23045738,.0026435,89.0058,60.6795,218.9241,141.0048,0,U,69858,999,171,-.92626E+0,-.1941522E-1,0
QIANFAN-230,2026-155M,2026-07-17T16:36:22.936032,14.17443419,.0034528,89.0054,60.6648,221.5627,138.2936,0,U,69859,999,173,-.10035E+1,-.1900665E-1,0
QIANFAN-231,2026-155N,2026-07-17T14:37:37.331040,14.21789463,.0029939,89.0060,60.6720,217.6602,142.2494,0,U,69860,999,172,-.89435E+0,-.183964E-1,0
QIANFAN-232,2026-155P,2026-07-17T12:51:49.340736,14.20565832,.0029111,89.0059,60.6791,225.5722,134.3086,0,U,69861,999,171,-.70358E+0,-.1422852E-1,0
QIANFAN-233,2026-155Q,2026-07-17T12:51:44.652672,14.22914198,.0026923,89.0058,60.6794,219.4666,140.4566,0,U,69862,999,171,-.91228E+0,-.1910031E-1,0
QIANFAN-234,2026-155R,2026-07-17T16:13:16.780224,14.22453577,.00285,89.0059,60.6635,212.0278,147.9182,0,U,69863,999,173,-.8832E+0,-.1838943E-1,0
QIANFAN-235,2026-155S,2026-07-17T16:13:22.809216,14.22593748,.0027651,89.0059,60.6633,213.0269,146.9197,0,U,69864,999,173,-.8968E+0,-.1869569E-1,0
QIANFAN-236,2026-155T,2026-07-17T16:13:33.730176,14.22867020,.0026592,89.0058,60.6634,213.0281,146.9251,0,U,69865,999,173,-.91498E+0,-.1913542E-1,0
QIANFAN-237,2026-155U,2026-07-17T12:51:07.341696,14.22602425,.0027579,89.0059,60.6793,217.6815,142.2445,0,U,69866,999,170,-.88841E+0,-.1853486E-1,0
